{"fetched_at":"2026-07-16T17:46:29.776Z","source":"https://celestrak.org/NORAD/elements/gp.php?NAME=HAWK&FORMAT=JSON","constellation":"hawkeye-360","records":[{"OBJECT_NAME":"HAWK-7B","OBJECT_ID":"2023-054R","EPOCH":"2026-07-16T04:42:17.375616","CLASSIFICATION_TYPE":"U","MEAN_MOTION":15.27636666,"ECCENTRICITY":0.00011997,"INCLINATION":97.2687,"RA_OF_ASC_NODE":82.07,"ARG_OF_PERICENTER":14.869,"MEAN_ANOMALY":345.2584,"EPHEMERIS_TYPE":0,"NORAD_CAT_ID":56193,"ELEMENT_SET_NO":999,"REV_AT_EPOCH":18145,"BSTAR":0.00011052853,"MEAN_MOTION_DOT":0.00002914,"MEAN_MOTION_DDOT":0},{"OBJECT_NAME":"HAWK-7C","OBJECT_ID":"2023-054Y","EPOCH":"2026-07-16T04:42:06.586848","CLASSIFICATION_TYPE":"U","MEAN_MOTION":15.27639304,"ECCENTRICITY":0.00008139,"INCLINATION":97.2662,"RA_OF_ASC_NODE":82.8298,"ARG_OF_PERICENTER":350.7437,"MEAN_ANOMALY":9.3788,"EPHEMERIS_TYPE":0,"NORAD_CAT_ID":56200,"ELEMENT_SET_NO":999,"REV_AT_EPOCH":18145,"BSTAR":0.0001091451,"MEAN_MOTION_DOT":0.00002877,"MEAN_MOTION_DDOT":0},{"OBJECT_NAME":"HAWK-8A","OBJECT_ID":"2024-066B","EPOCH":"2026-07-16T03:56:43.652832","CLASSIFICATION_TYPE":"U","MEAN_MOTION":14.99290893,"ECCENTRICITY":0.00030681,"INCLINATION":45.596,"RA_OF_ASC_NODE":126.8043,"ARG_OF_PERICENTER":224.5786,"MEAN_ANOMALY":135.4849,"EPHEMERIS_TYPE":0,"NORAD_CAT_ID":59443,"ELEMENT_SET_NO":999,"REV_AT_EPOCH":12418,"BSTAR":0.00012118898,"MEAN_MOTION_DOT":0.0000127,"MEAN_MOTION_DDOT":0},{"OBJECT_NAME":"HAWK-8B","OBJECT_ID":"2024-066D","EPOCH":"2026-07-15T05:34:06.753504","CLASSIFICATION_TYPE":"U","MEAN_MOTION":14.99281358,"ECCENTRICITY":0.00031385,"INCLINATION":45.6178,"RA_OF_ASC_NODE":133.6064,"ARG_OF_PERICENTER":223.6026,"MEAN_ANOMALY":136.4608,"EPHEMERIS_TYPE":0,"NORAD_CAT_ID":59445,"ELEMENT_SET_NO":999,"REV_AT_EPOCH":12403,"BSTAR":0.000044094056,"MEAN_MOTION_DOT":0.00000315,"MEAN_MOTION_DDOT":0},{"OBJECT_NAME":"HAWK-9A","OBJECT_ID":"2024-066E","EPOCH":"2026-07-16T04:30:20.894976","CLASSIFICATION_TYPE":"U","MEAN_MOTION":14.99216883,"ECCENTRICITY":0.00028653,"INCLINATION":45.6095,"RA_OF_ASC_NODE":127.3297,"ARG_OF_PERICENTER":210.3364,"MEAN_ANOMALY":149.7352,"EPHEMERIS_TYPE":0,"NORAD_CAT_ID":59446,"ELEMENT_SET_NO":999,"REV_AT_EPOCH":12418,"BSTAR":0.000067080412,"MEAN_MOTION_DOT":0.00000598,"MEAN_MOTION_DDOT":0},{"OBJECT_NAME":"HAWK-9C","OBJECT_ID":"2024-066G","EPOCH":"2026-07-15T23:42:51.962688","CLASSIFICATION_TYPE":"U","MEAN_MOTION":14.99215083,"ECCENTRICITY":0.00026942,"INCLINATION":45.6064,"RA_OF_ASC_NODE":127.4604,"ARG_OF_PERICENTER":194.1901,"MEAN_ANOMALY":165.8905,"EPHEMERIS_TYPE":0,"NORAD_CAT_ID":59448,"ELEMENT_SET_NO":999,"REV_AT_EPOCH":12415,"BSTAR":0.000056982874,"MEAN_MOTION_DOT":0.00000474,"MEAN_MOTION_DDOT":0},{"OBJECT_NAME":"HAWK-8C","OBJECT_ID":"2024-066H","EPOCH":"2026-07-16T00:44:44.074752","CLASSIFICATION_TYPE":"U","MEAN_MOTION":14.99290918,"ECCENTRICITY":0.00028455,"INCLINATION":45.6073,"RA_OF_ASC_NODE":128.4928,"ARG_OF_PERICENTER":232.9392,"MEAN_ANOMALY":127.1229,"EPHEMERIS_TYPE":0,"NORAD_CAT_ID":59449,"ELEMENT_SET_NO":999,"REV_AT_EPOCH":12415,"BSTAR":0.000061456384,"MEAN_MOTION_DOT":0.0000053,"MEAN_MOTION_DDOT":0},{"OBJECT_NAME":"HAWK-9B","OBJECT_ID":"2024-066J","EPOCH":"2026-07-16T04:30:47.096640","CLASSIFICATION_TYPE":"U","MEAN_MOTION":14.99211791,"ECCENTRICITY":0.00029327,"INCLINATION":45.6119,"RA_OF_ASC_NODE":128.2648,"ARG_OF_PERICENTER":190.0747,"MEAN_ANOMALY":170.0076,"EPHEMERIS_TYPE":0,"NORAD_CAT_ID":59450,"ELEMENT_SET_NO":999,"REV_AT_EPOCH":12418,"BSTAR":0.000066940004,"MEAN_MOTION_DOT":0.00000597,"MEAN_MOTION_DDOT":0},{"OBJECT_NAME":"HAWK-10A","OBJECT_ID":"2024-149CA","EPOCH":"2026-07-16T04:30:03.157920","CLASSIFICATION_TYPE":"U","MEAN_MOTION":14.96592854,"ECCENTRICITY":0.00030026,"INCLINATION":97.6889,"RA_OF_ASC_NODE":272.6007,"ARG_OF_PERICENTER":358.9482,"MEAN_ANOMALY":1.1732,"EPHEMERIS_TYPE":0,"NORAD_CAT_ID":60540,"ELEMENT_SET_NO":999,"REV_AT_EPOCH":10432,"BSTAR":0.00001641302,"MEAN_MOTION_DOT":0.0000013,"MEAN_MOTION_DDOT":0},{"OBJECT_NAME":"HAWK-10B","OBJECT_ID":"2024-149CF","EPOCH":"2026-07-16T04:29:51.389376","CLASSIFICATION_TYPE":"U","MEAN_MOTION":14.96591813,"ECCENTRICITY":0.00053423,"INCLINATION":97.6807,"RA_OF_ASC_NODE":271.9264,"ARG_OF_PERICENTER":10.8089,"MEAN_ANOMALY":349.3246,"EPHEMERIS_TYPE":0,"NORAD_CAT_ID":60545,"ELEMENT_SET_NO":999,"REV_AT_EPOCH":10432,"BSTAR":0.000018638923,"MEAN_MOTION_DOT":0.00000155,"MEAN_MOTION_DDOT":0},{"OBJECT_NAME":"HAWK-10C","OBJECT_ID":"2024-149DM","EPOCH":"2026-07-16T04:30:20.621952","CLASSIFICATION_TYPE":"U","MEAN_MOTION":14.96590392,"ECCENTRICITY":0.00025716,"INCLINATION":97.6725,"RA_OF_ASC_NODE":271.2358,"ARG_OF_PERICENTER":344.5596,"MEAN_ANOMALY":15.5547,"EPHEMERIS_TYPE":0,"NORAD_CAT_ID":60575,"ELEMENT_SET_NO":999,"REV_AT_EPOCH":10432,"BSTAR":0.000020904453,"MEAN_MOTION_DOT":0.00000181,"MEAN_MOTION_DDOT":0},{"OBJECT_NAME":"HAWK-11B","OBJECT_ID":"2024-247C","EPOCH":"2026-07-16T03:35:01.373280","CLASSIFICATION_TYPE":"U","MEAN_MOTION":15.30675722,"ECCENTRICITY":0.00028221,"INCLINATION":45.0148,"RA_OF_ASC_NODE":130.9486,"ARG_OF_PERICENTER":28.3224,"MEAN_ANOMALY":331.7814,"EPHEMERIS_TYPE":0,"NORAD_CAT_ID":62379,"ELEMENT_SET_NO":999,"REV_AT_EPOCH":8744,"BSTAR":0.0001442896,"MEAN_MOTION_DOT":0.00004056,"MEAN_MOTION_DDOT":0},{"OBJECT_NAME":"HAWK-11C","OBJECT_ID":"2024-247E","EPOCH":"2026-07-16T05:08:21.078240","CLASSIFICATION_TYPE":"U","MEAN_MOTION":15.30672158,"ECCENTRICITY":0.00037235,"INCLINATION":45.0039,"RA_OF_ASC_NODE":129.9225,"ARG_OF_PERICENTER":14.9875,"MEAN_ANOMALY":345.1119,"EPHEMERIS_TYPE":0,"NORAD_CAT_ID":62381,"ELEMENT_SET_NO":999,"REV_AT_EPOCH":8745,"BSTAR":0.00014209752,"MEAN_MOTION_DOT":0.00003989,"MEAN_MOTION_DDOT":0},{"OBJECT_NAME":"HAWK-11A","OBJECT_ID":"2024-247F","EPOCH":"2026-07-15T22:52:34.333824","CLASSIFICATION_TYPE":"U","MEAN_MOTION":15.30666676,"ECCENTRICITY":0.0003193,"INCLINATION":44.9931,"RA_OF_ASC_NODE":130.6816,"ARG_OF_PERICENTER":13.4807,"MEAN_ANOMALY":346.6162,"EPHEMERIS_TYPE":0,"NORAD_CAT_ID":62382,"ELEMENT_SET_NO":999,"REV_AT_EPOCH":8741,"BSTAR":0.00014628997,"MEAN_MOTION_DOT":0.00004116,"MEAN_MOTION_DDOT":0},{"OBJECT_NAME":"HAWK-12C","OBJECT_ID":"2025-138A","EPOCH":"2026-07-15T12:19:03.558432","CLASSIFICATION_TYPE":"U","MEAN_MOTION":15.18407563,"ECCENTRICITY":0.00152556,"INCLINATION":97.435,"RA_OF_ASC_NODE":198.4799,"ARG_OF_PERICENTER":50.2976,"MEAN_ANOMALY":309.9601,"EPHEMERIS_TYPE":0,"NORAD_CAT_ID":64621,"ELEMENT_SET_NO":999,"REV_AT_EPOCH":5816,"BSTAR":0.00010957784,"MEAN_MOTION_DOT":0.00002192,"MEAN_MOTION_DDOT":0},{"OBJECT_NAME":"HAWK-12B","OBJECT_ID":"2025-138B","EPOCH":"2026-07-15T21:48:41.373216","CLASSIFICATION_TYPE":"U","MEAN_MOTION":15.18408186,"ECCENTRICITY":0.0014087,"INCLINATION":97.4471,"RA_OF_ASC_NODE":199.5633,"ARG_OF_PERICENTER":45.276,"MEAN_ANOMALY":314.9618,"EPHEMERIS_TYPE":0,"NORAD_CAT_ID":64622,"ELEMENT_SET_NO":999,"REV_AT_EPOCH":5822,"BSTAR":0.00010369,"MEAN_MOTION_DOT":0.0000207,"MEAN_MOTION_DDOT":0}]}
