HAWK-7B                 
1 56193U 23054R   26197.19603444  .00002914  00000+0  11053-3 0  9992
2 56193  97.2687  82.0700 0001199  14.8690 345.2584 15.27636666181458
HAWK-7C                 
1 56200U 23054Y   26197.19590957  .00002877  00000+0  10915-3 0  9999
2 56200  97.2662  82.8298 0000813 350.7437   9.3788 15.27639304181459
HAWK-8A                 
1 59443U 24066B   26197.16439413  .00001270  00000+0  12119-3 0  9995
2 59443  45.5960 126.8043 0003068 224.5786 135.4849 14.99290893124185
HAWK-8B                 
1 59445U 24066D   26196.23202261  .00000315  00000+0  44094-4 0  9990
2 59445  45.6178 133.6064 0003138 223.6026 136.4608 14.99281358124037
HAWK-9A                 
1 59446U 24066E   26197.18774184  .00000598  00000+0  67080-4 0  9997
2 59446  45.6095 127.3297 0002865 210.3364 149.7352 14.99216883124188
HAWK-9C                 
1 59448U 24066G   26196.98810142  .00000474  00000+0  56983-4 0  9994
2 59448  45.6064 127.4604 0002694 194.1901 165.8905 14.99215083124156
HAWK-8C                 
1 59449U 24066H   26197.03106568  .00000530  00000+0  61456-4 0  9996
2 59449  45.6073 128.4928 0002845 232.9392 127.1229 14.99290918124150
HAWK-9B                 
1 59450U 24066J   26197.18804510  .00000597  00000+0  66940-4 0  9992
2 59450  45.6119 128.2648 0002932 190.0747 170.0076 14.99211791124187
HAWK-10A                
1 60540U 24149CA  26197.18753655  .00000130  00000+0  16413-4 0  9992
2 60540  97.6889 272.6007 0003002 358.9482   1.1732 14.96592854104329
HAWK-10B                
1 60545U 24149CF  26197.18740034  .00000155  00000+0  18639-4 0  9993
2 60545  97.6807 271.9264 0005342  10.8089 349.3246 14.96591813104328
HAWK-10C                
1 60575U 24149DM  26197.18773868  .00000181  00000+0  20904-4 0  9994
2 60575  97.6725 271.2358 0002571 344.5596  15.5547 14.96590392104325
HAWK-11B                
1 62379U 24247C   26197.14932145  .00004056  00000+0  14429-3 0  9997
2 62379  45.0148 130.9486 0002822  28.3224 331.7814 15.30675722 87445
HAWK-11C                
1 62381U 24247E   26197.21413285  .00003989  00000+0  14210-3 0  9999
2 62381  45.0039 129.9225 0003723  14.9875 345.1119 15.30672158 87458
HAWK-11A                
1 62382U 24247F   26196.95317516  .00004116  00000+0  14629-3 0  9997
2 62382  44.9931 130.6816 0003193  13.4807 346.6162 15.30666676 87411
HAWK-12C                
1 64621U 25138A   26196.51323563  .00002192  00000+0  10958-3 0  9999
2 64621  97.4350 198.4799 0015255  50.2976 309.9601 15.18407563 58161
HAWK-12B                
1 64622U 25138B   26196.90881219  .00002070  00000+0  10369-3 0  9991
2 64622  97.4471 199.5633 0014087  45.2760 314.9618 15.18408186 58225
